STRIX-1                 
1 53815U 22113A   26192.15581235  .00015634  00000+0  38231-3 0  9999
2 53815  97.4486 254.6224 0005347 142.5707 217.5912 15.40879172211131
STRIX-3                 
1 59224U 24047A   26192.21354249  .00005445  00000+0  25735-3 0  9991
2 59224  97.6627 168.2505 0012438 349.3111  10.7857 15.19769537128392
STRIX-4                 
1 60352U 24137A   26192.19800934  .00009182  00000+0  28728-3 0  9996
2 60352  43.0143 148.3306 0015721 103.7297 256.5308 15.33227588107701
STRIX-2                 
1 62406U 24248A   26192.20967916  .00003235  00000+0  20741-3 0  9997
2 62406  97.6295 147.7153 0013495 250.9365 109.0402 15.09168386 85217
STRIX-5                 
1 65971U 25229A   26191.93545524  .00001672  00000+0  12910-3 0  9995
2 65971  41.9266 155.6924 0037477 210.2665 149.5996 15.04570886 40551
STRIX-6                 
1 68291U 26056A   26192.10641719  .00001272  00000+0  12112-3 0  9995
2 68291  50.2817 236.7152 0016578 335.5146  24.5014 15.00317742 16868
STRIX-7                 
1 69177U 26112A   26192.12354984  .00002256  00000+0  18803-3 0  9995
2 69177  44.9079  66.7173 0024272 185.3538 174.7077 15.01589864  7473
STRIX-8                 
1 69701U 26146A   26191.90351588  .00002680  00000+0  20195-3 0  9995
2 69701  41.9901  36.8671 0007849 353.8302   6.2427 15.04411165  2137
