{"fetched_at":"2026-07-11T09:24:43.761Z","source":"https://celestrak.org/NORAD/elements/gp.php?NAME=STRIX&FORMAT=JSON","constellation":"synspective","records":[{"OBJECT_NAME":"STRIX-1","OBJECT_ID":"2022-113A","EPOCH":"2026-07-11T03:44:22.187040","CLASSIFICATION_TYPE":"U","MEAN_MOTION":15.40879172,"ECCENTRICITY":0.0005347,"INCLINATION":97.4486,"RA_OF_ASC_NODE":254.6224,"ARG_OF_PERICENTER":142.5707,"MEAN_ANOMALY":217.5912,"EPHEMERIS_TYPE":0,"NORAD_CAT_ID":53815,"ELEMENT_SET_NO":999,"REV_AT_EPOCH":21113,"BSTAR":0.00038231,"MEAN_MOTION_DOT":0.00015634,"MEAN_MOTION_DDOT":0},{"OBJECT_NAME":"STRIX-3","OBJECT_ID":"2024-047A","EPOCH":"2026-07-11T05:07:30.071136","CLASSIFICATION_TYPE":"U","MEAN_MOTION":15.19769537,"ECCENTRICITY":0.0012438,"INCLINATION":97.6627,"RA_OF_ASC_NODE":168.2505,"ARG_OF_PERICENTER":349.3111,"MEAN_ANOMALY":10.7857,"EPHEMERIS_TYPE":0,"NORAD_CAT_ID":59224,"ELEMENT_SET_NO":999,"REV_AT_EPOCH":12839,"BSTAR":0.00025735,"MEAN_MOTION_DOT":0.00005445,"MEAN_MOTION_DDOT":0},{"OBJECT_NAME":"STRIX-4","OBJECT_ID":"2024-137A","EPOCH":"2026-07-11T04:45:08.006976","CLASSIFICATION_TYPE":"U","MEAN_MOTION":15.33227588,"ECCENTRICITY":0.0015721,"INCLINATION":43.0143,"RA_OF_ASC_NODE":148.3306,"ARG_OF_PERICENTER":103.7297,"MEAN_ANOMALY":256.5308,"EPHEMERIS_TYPE":0,"NORAD_CAT_ID":60352,"ELEMENT_SET_NO":999,"REV_AT_EPOCH":10770,"BSTAR":0.00028728,"MEAN_MOTION_DOT":0.00009182,"MEAN_MOTION_DDOT":0},{"OBJECT_NAME":"STRIX-2","OBJECT_ID":"2024-248A","EPOCH":"2026-07-11T05:01:56.279424","CLASSIFICATION_TYPE":"U","MEAN_MOTION":15.09168386,"ECCENTRICITY":0.0013495,"INCLINATION":97.6295,"RA_OF_ASC_NODE":147.7153,"ARG_OF_PERICENTER":250.9365,"MEAN_ANOMALY":109.0402,"EPHEMERIS_TYPE":0,"NORAD_CAT_ID":62406,"ELEMENT_SET_NO":999,"REV_AT_EPOCH":8521,"BSTAR":0.00020741,"MEAN_MOTION_DOT":0.00003235,"MEAN_MOTION_DDOT":0},{"OBJECT_NAME":"STRIX-5","OBJECT_ID":"2025-229A","EPOCH":"2026-07-10T22:27:03.332736","CLASSIFICATION_TYPE":"U","MEAN_MOTION":15.04570886,"ECCENTRICITY":0.0037477,"INCLINATION":41.9266,"RA_OF_ASC_NODE":155.6924,"ARG_OF_PERICENTER":210.2665,"MEAN_ANOMALY":149.5996,"EPHEMERIS_TYPE":0,"NORAD_CAT_ID":65971,"ELEMENT_SET_NO":999,"REV_AT_EPOCH":4055,"BSTAR":0.0001291,"MEAN_MOTION_DOT":0.00001672,"MEAN_MOTION_DDOT":0},{"OBJECT_NAME":"STRIX-6","OBJECT_ID":"2026-056A","EPOCH":"2026-07-11T02:33:14.445216","CLASSIFICATION_TYPE":"U","MEAN_MOTION":15.00317742,"ECCENTRICITY":0.0016578,"INCLINATION":50.2817,"RA_OF_ASC_NODE":236.7152,"ARG_OF_PERICENTER":335.5146,"MEAN_ANOMALY":24.5014,"EPHEMERIS_TYPE":0,"NORAD_CAT_ID":68291,"ELEMENT_SET_NO":999,"REV_AT_EPOCH":1686,"BSTAR":0.00012112,"MEAN_MOTION_DOT":0.00001272,"MEAN_MOTION_DDOT":0},{"OBJECT_NAME":"STRIX-7","OBJECT_ID":"2026-112A","EPOCH":"2026-07-11T02:57:54.706176","CLASSIFICATION_TYPE":"U","MEAN_MOTION":15.01589864,"ECCENTRICITY":0.0024272,"INCLINATION":44.9079,"RA_OF_ASC_NODE":66.7173,"ARG_OF_PERICENTER":185.3538,"MEAN_ANOMALY":174.7077,"EPHEMERIS_TYPE":0,"NORAD_CAT_ID":69177,"ELEMENT_SET_NO":999,"REV_AT_EPOCH":747,"BSTAR":0.00018803,"MEAN_MOTION_DOT":0.00002256,"MEAN_MOTION_DDOT":0},{"OBJECT_NAME":"STRIX-8","OBJECT_ID":"2026-146A","EPOCH":"2026-07-10T21:41:03.772032","CLASSIFICATION_TYPE":"U","MEAN_MOTION":15.04411165,"ECCENTRICITY":0.0007849,"INCLINATION":41.9901,"RA_OF_ASC_NODE":36.8671,"ARG_OF_PERICENTER":353.8302,"MEAN_ANOMALY":6.2427,"EPHEMERIS_TYPE":0,"NORAD_CAT_ID":69701,"ELEMENT_SET_NO":999,"REV_AT_EPOCH":213,"BSTAR":0.00020195,"MEAN_MOTION_DOT":0.0000268,"MEAN_MOTION_DDOT":0}]}
